NORAD_CAT_ID,OBJECT_NAME,OBJECT_TYPE,EPOCH,MEAN_MOTION,ECCENTRICITY,INCLINATION,RA_OF_ASC_NODE,ARG_OF_PERICENTER,MEAN_ANOMALY,BSTAR,MEAN_MOTION_DOT,MEAN_MOTION_DDOT,TLE_LINE0,TLE_LINE1,TLE_LINE2,SEMIMAJOR_AXIS,PERIOD,APOGEE,PERIGEE,DECAYED
53142.0,STARLINK-4101,PAYLOAD,2023-05-10 07:37:16,15.08841608,0.0001216,53.2158,137.5934,89.5489,270.5642,0.00018037,2.584e-05,0.0,0 STARLINK-4101,1 53142U 22083L   23130.31754693  .00002584  00000-0  18037-3 0  9998,2 53142  53.2158 137.5934 0001216  89.5489 270.5642 15.08841608 45079,6917.875,95.437,540.582,538.899,0.0
53142.0,STARLINK-4101,PAYLOAD,2023-05-10 17:09:34,15.08839647,0.0001236,53.2158,135.8088,89.6305,270.4829,0.00010493,1.382e-05,0.0,0 STARLINK-4101,1 53142U 22083L   23130.71498812  .00001382  00000-0  10493-3 0  9993,2 53142  53.2158 135.8088 0001236  89.6305 270.4829 15.08839647 45133,6917.881,95.438,540.602,538.891,0.0
53142.0,STARLINK-4101,PAYLOAD,2023-05-11 07:28:03,15.08837974,0.0001208,53.2167,133.1326,91.8173,268.2957,6.2527e-05,7.07e-06,0.0,0 STARLINK-4101,1 53142U 22083L   23131.31115214  .00000707  00000-0  62527-4 0  9998,2 53142  53.2167 133.1326 0001208  91.8173 268.2957 15.08837974 45842,6917.887,95.438,540.587,538.916,0.0
53142.0,STARLINK-4101,PAYLOAD,2023-05-11 17:00:22,15.08839175,0.0001209,53.2168,131.3484,91.9647,268.1483,6.4639e-05,7.41e-06,0.0,0 STARLINK-4101,1 53142U 22083L   23131.70859171  .00000741  00000-0  64639-4 0  9992,2 53142  53.2168 131.3484 0001209  91.9647 268.1483 15.08839175 45282,6917.883,95.438,540.584,538.912,0.0
53142.0,STARLINK-4101,PAYLOAD,2023-05-12 04:08:04,15.0884118,0.0001207,53.2169,129.2668,92.2419,267.8711,6.6927e-05,7.77e-06,0.0,0 STARLINK-4101,1 53142U 22083L   23132.17227062  .00000777  00000-0  66927-4 0  9993,2 53142  53.2169 129.2668 0001207  92.2419 267.8711 15.08841180 45359,6917.877,95.437,540.577,538.907,0.0
53142.0,STARLINK-4101,PAYLOAD,2023-05-12 16:51:09,15.08838725,0.0001172,53.217,126.8864,86.3105,273.8021,4.5871e-05,4.42e-06,0.0,0 STARLINK-4101,1 53142U 22083L   23132.70219259  .00000442  00000-0  45871-4 0  9995,2 53142  53.2170 126.8864 0001172  86.3105 273.8021 15.08838725 46059,6917.884,95.438,540.56,538.939,0.0
53142.0,STARLINK-4101,PAYLOAD,2023-05-13 07:09:37,15.08838768,0.0001137,53.2171,124.2095,87.2206,272.8916,7.4205e-05,8.93e-06,0.0,0 STARLINK-4101,1 53142U 22083L   23133.29835302  .00000893  00000-0  74205-4 0  9996,2 53142  53.2171 124.2095 0001137  87.2206 272.8916 15.08838768 45521,6917.884,95.438,540.536,538.963,0.0
53142.0,STARLINK-4101,PAYLOAD,2023-05-13 16:41:56,15.08838601,0.000114,53.2172,122.4262,85.7634,274.3488,6.7795e-05,7.91e-06,0.0,0 STARLINK-4101,1 53142U 22083L   23133.69579351  .00000791  00000-0  67795-4 0  9992,2 53142  53.2172 122.4262 0001140  85.7634 274.3488 15.08838601 45583,6917.885,95.438,540.538,538.961,0.0
53142.0,STARLINK-4101,PAYLOAD,2023-05-14 03:49:38,15.08839621,0.0001213,53.2175,120.345,85.2068,274.9063,5.0096e-05,5.1e-06,0.0,0 STARLINK-4101,1 53142U 22083L   23134.15947428  .00000510  00000-0  50096-4 0  9993,2 53142  53.2175 120.3450 0001213  85.2068 274.9063 15.08839621 46274,6917.882,95.438,540.586,538.907,0.0
53142.0,STARLINK-4101,PAYLOAD,2023-05-14 05:25:01,15.08840732,0.0001151,53.2168,120.0488,83.2742,276.8381,6.9211e-05,8.14e-06,0.0,0 STARLINK-4101,1 53142U 22083L   23134.22571303  .00000814  00000-0  69211-4 0  9992,2 53142  53.2168 120.0488 0001151  83.2742 276.8381 15.08840732 45663,6917.878,95.438,540.539,538.947,0.0
53142.0,STARLINK-4101,PAYLOAD,2023-05-14 16:32:43,15.08839042,0.0001141,53.2169,117.9668,83.756,276.3562,5.9588e-05,6.61e-06,0.0,0 STARLINK-4101,1 53142U 22083L   23134.68939411  .00000661  00000-0  59588-4 0  9996,2 53142  53.2169 117.9668 0001141  83.7560 276.3562 15.08839042 45737,6917.883,95.438,540.538,538.959,0.0
53142.0,STARLINK-4101,PAYLOAD,2023-05-15 05:15:48,15.08840912,0.0001146,53.217,115.5879,83.8135,276.2987,8.729e-05,1.102e-05,0.0,0 STARLINK-4101,1 53142U 22083L   23135.21931260  .00001102  00000-0  87290-4 0  9992,2 53142  53.2170 115.5879 0001146  83.8135 276.2987 15.08840912 46437,6917.878,95.437,540.535,538.95,0.0
53142.0,STARLINK-4101,PAYLOAD,2023-05-16 05:06:35,15.0884175,0.0001187,53.2173,111.1264,88.0799,272.0329,7.1607e-05,8.52e-06,0.0,0 STARLINK-4101,1 53142U 22083L   23136.21291217  .00000852  00000-0  71607-4 0  9990,2 53142  53.2173 111.1264 0001187  88.0799 272.0329 15.08841750 45960,6917.875,95.437,540.561,538.919,0.0
53142.0,STARLINK-4101,PAYLOAD,2023-05-17 01:46:36,15.08839498,0.0001227,53.2178,107.2607,87.1032,273.01,2.5817e-05,1.23e-06,0.0,0 STARLINK-4101,1 53142U 22083L   23137.07403441  .00000123  00000-0  25817-4 0  9992,2 53142  53.2178 107.2607 0001227  87.1032 273.0100 15.08839498 46715,6917.882,95.438,540.596,538.898,0.0
53142.0,STARLINK-4101,PAYLOAD,2023-05-17 04:57:22,15.08842118,0.0001226,53.2179,106.6664,86.9763,273.137,4.4584e-05,4.22e-06,0.0,0 STARLINK-4101,1 53142U 22083L   23137.20651195  .00000422  00000-0  44584-4 0  9992,2 53142  53.2179 106.6664 0001226  86.9763 273.1370 15.08842118 46116,6917.874,95.437,540.587,538.891,0.0
53142.0,STARLINK-4101,PAYLOAD,2023-05-18 03:12:47,15.08832003,0.0001236,53.2178,102.5048,89.4596,270.6538,-2.5447e-05,-6.93e-06,0.0,0 STARLINK-4101,1 53142U 22083L   23138.13388244 -.00000693  00000-0 -25447-4 0  9996,2 53142  53.2178 102.5048 0001236  89.4596 270.6538 15.08832003 46872,6917.905,95.438,540.625,538.915,0.0
53142.0,STARLINK-4101,PAYLOAD,2023-05-18 07:58:56,15.08826247,0.000123,53.2176,101.6122,95.2504,264.8629,8.1062e-05,1.002e-05,0.0,0 STARLINK-4101,1 53142U 22083L   23138.33260301  .00001002  00000-0  81062-4 0  9999,2 53142  53.2176 101.6122 0001230  95.2504 264.8629 15.08826247 46285,6917.922,95.438,540.638,538.937,0.0
53142.0,STARLINK-4101,PAYLOAD,2023-05-18 22:17:24,15.08838056,0.000121,53.2182,98.9357,92.9387,267.1744,3.4975e-05,2.69e-06,0.0,0 STARLINK-4101,1 53142U 22083L   23138.92875849  .00000269  00000-0  34975-4 0  9998,2 53142  53.2182  98.9357 0001210  92.9387 267.1744 15.08838056 46376,6917.886,95.438,540.588,538.914,0.0
53142.0,STARLINK-4101,PAYLOAD,2023-05-19 01:28:10,15.08840508,0.0001201,53.218,98.3411,92.1634,267.9495,5.0752e-05,5.2e-06,0.0,0 STARLINK-4101,1 53142U 22083L   23139.06123648  .00000520  00000-0  50752-4 0  9998,2 53142  53.2180  98.3411 0001201  92.1634 267.9495 15.08840508 47014,6917.879,95.438,540.575,538.913,0.0
53142.0,STARLINK-4101,PAYLOAD,2023-05-19 06:14:19,15.08845284,0.0001211,53.2178,97.449,88.9724,271.1407,8.1906e-05,1.016e-05,0.0,0 STARLINK-4101,1 53142U 22083L   23139.25995269  .00001016  00000-0  81906-4 0  9991,2 53142  53.2178  97.4490 0001211  88.9724 271.1407 15.08845284 46422,6917.864,95.437,540.567,538.891,0.0
53142.0,STARLINK-4101,PAYLOAD,2023-05-20 02:54:21,15.08835919,0.0001336,53.218,93.5826,90.4631,269.6515,4.3526e-05,4.05e-06,0.0,0 STARLINK-4101,1 53142U 22083L   23140.12108179  .00000405  00000-0  43526-4 0  9992,2 53142  53.2180  93.5826 0001336  90.4631 269.6515 15.08835919 47177,6917.893,95.438,540.682,538.834,0.0
53142.0,STARLINK-4101,PAYLOAD,2023-05-20 06:05:07,15.08839197,0.0001291,53.2176,92.9871,84.5723,275.5417,6.721e-05,7.82e-06,0.0,0 STARLINK-4101,1 53142U 22083L   23140.25355986  .00000782  00000-0  67210-4 0  9990,2 53142  53.2176  92.9871 0001291  84.5723 275.5417 15.08839197 46573,6917.883,95.438,540.641,538.855,0.0
53142.0,STARLINK-4101,PAYLOAD,2023-05-21 02:45:06,15.08857402,0.0001326,53.2177,89.1211,92.731,267.3834,0.00011479,1.54e-05,0.0,0 STARLINK-4101,1 53142U 22083L   23141.11466238  .00001540  00000-0  11479-3 0  9997,2 53142  53.2177  89.1211 0001326  92.7310 267.3834 15.08857402 47327,6917.827,95.436,540.61,538.775,0.0
53142.0,STARLINK-4101,PAYLOAD,2023-05-21 05:55:52,15.08862952,0.0001359,53.2176,88.5261,94.2659,265.8489,0.00016364,2.319e-05,0.0,0 STARLINK-4101,1 53142U 22083L   23141.24713672  .00002319  00000-0  16364-3 0  9991,2 53142  53.2176  88.5261 0001359  94.2659 265.8489 15.08862952 46721,6917.81,95.436,540.615,538.735,0.0
53142.0,STARLINK-4101,PAYLOAD,2023-05-22 02:35:55,15.08833225,0.0001373,53.2177,84.6614,102.8571,257.2574,-6.5126e-05,-1.324e-05,0.0,0 STARLINK-4101,1 53142U 22083L   23142.10828424 -.00001324  00000-0 -65126-4 0  9997,2 53142  53.2177  84.6614 0001373 102.8571 257.2574 15.08833225 47470,6917.901,95.438,540.716,538.816,0.0
53142.0,STARLINK-4101,PAYLOAD,2023-05-22 20:05:09,15.08851364,0.0001275,53.2185,81.3908,100.5582,259.5554,-9.7889e-05,-1.846e-05,0.0,0 STARLINK-4101,1 53142U 22083L   23142.83691555 -.00001846  00000-0 -97889-4 0  9990,2 53142  53.2185  81.3908 0001275 100.5582 259.5554 15.08851364 46967,6917.846,95.437,540.593,538.829,0.0
53142.0,STARLINK-4101,PAYLOAD,2023-05-23 02:26:41,15.08856741,0.0001385,53.2184,80.2036,99.6979,260.417,-2.5866e-06,-3.29e-06,0.0,0 STARLINK-4101,1 53142U 22083L   23143.10186821 -.00000329  00000-0 -25866-5 0  9998,2 53142  53.2184  80.2036 0001385  99.6979 260.4170 15.08856741 47629,6917.829,95.436,540.652,538.736,0.0
53142.0,STARLINK-4101,PAYLOAD,2023-05-23 23:06:43,15.08833434,0.0001645,53.219,76.3405,116.8805,243.2356,9.2599e-05,1.186e-05,0.0,0 STARLINK-4101,1 53142U 22083L   23143.96300261  .00001186  00000-0  92599-4 0  9994,2 53142  53.2190  76.3405 0001645 116.8805 243.2356 15.08833434 47754,6917.9,95.438,540.903,538.627,0.0
53142.0,STARLINK-4101,PAYLOAD,2023-05-24 05:28:16,15.08831946,0.0001481,53.218,75.1471,112.9144,247.2005,0.00011407,1.528e-05,0.0,0 STARLINK-4101,1 53142U 22083L   23144.22796367  .00001528  00000-0  11407-3 0  9998,2 53142  53.2180  75.1471 0001481 112.9144 247.2005 15.08831946 47171,6917.905,95.438,540.795,538.745,0.0
53142.0,STARLINK-4101,PAYLOAD,2023-05-26 01:59:04,15.08838982,0.0001266,53.2188,66.8227,101.4191,258.6943,9.3718e-05,1.204e-05,0.0,0 STARLINK-4101,1 53142U 22083L   23146.08268528  .00001204  00000-0  93718-4 0  9994,2 53142  53.2188  66.8227 0001266 101.4191 258.6943 15.08838982 48075,6917.884,95.438,540.624,538.873,0.0
